CCSDS_OMM_VERS = 2.0
CREATION_DATE  = 
ORIGINATOR     = 

OBJECT_NAME    = STARLINK-36772
OBJECT_ID      = 2026-026A
CENTER_NAME    = EARTH
REF_FRAME      = TEME
TIME_SYSTEM    = UTC
MEAN_ELEMENT_THEORY = SGP/SGP4

EPOCH          = 2026-03-12T14:00:01.999872
MEAN_MOTION    = 15.34173274
ECCENTRICITY   = .0001048
INCLINATION    = 97.2845
RA_OF_ASC_NODE = 126.0902
ARG_OF_PERICENTER = 100.9690
MEAN_ANOMALY   = 328.0519

EPHEMERIS_TYPE = 0
CLASSIFICATION_TYPE = U
NORAD_CAT_ID   = 67721
ELEMENT_SET_NO = 999
REV_AT_EPOCH   = 578
BSTAR          = .26975865E-2
MEAN_MOTION_DOT = .90101E-3
MEAN_MOTION_DDOT = 0

CCSDS_OMM_VERS = 2.0
CREATION_DATE  = 
ORIGINATOR     = 

OBJECT_NAME    = STARLINK-36796
OBJECT_ID      = 2026-026B
CENTER_NAME    = EARTH
REF_FRAME      = TEME
TIME_SYSTEM    = UTC
MEAN_ELEMENT_THEORY = SGP/SGP4

EPOCH          = 2026-03-12T14:00:01.999872
MEAN_MOTION    = 15.34181866
ECCENTRICITY   = .0001689
INCLINATION    = 97.2843
RA_OF_ASC_NODE = 126.0756
ARG_OF_PERICENTER = 58.2804
MEAN_ANOMALY   = 342.5245

EPHEMERIS_TYPE = 0
CLASSIFICATION_TYPE = U
NORAD_CAT_ID   = 67722
ELEMENT_SET_NO = 999
REV_AT_EPOCH   = 578
BSTAR          = .3050201E-2
MEAN_MOTION_DOT = .102079E-2
MEAN_MOTION_DDOT = 0

CCSDS_OMM_VERS = 2.0
CREATION_DATE  = 
ORIGINATOR     = 

OBJECT_NAME    = STARLINK-36369
OBJECT_ID      = 2026-026C
CENTER_NAME    = EARTH
REF_FRAME      = TEME
TIME_SYSTEM    = UTC
MEAN_ELEMENT_THEORY = SGP/SGP4

EPOCH          = 2026-03-12T14:00:01.999872
MEAN_MOTION    = 15.37266281
ECCENTRICITY   = .00013912
INCLINATION    = 97.2856
RA_OF_ASC_NODE = 126.1049
ARG_OF_PERICENTER = 75.1581
MEAN_ANOMALY   = 20.7931

EPHEMERIS_TYPE = 0
CLASSIFICATION_TYPE = U
NORAD_CAT_ID   = 67723
ELEMENT_SET_NO = 999
REV_AT_EPOCH   = 578
BSTAR          = -.55248523E-1
MEAN_MOTION_DOT = -.1813956E-1
MEAN_MOTION_DDOT = 0

CCSDS_OMM_VERS = 2.0
CREATION_DATE  = 
ORIGINATOR     = 

OBJECT_NAME    = STARLINK-36752
OBJECT_ID      = 2026-026D
CENTER_NAME    = EARTH
REF_FRAME      = TEME
TIME_SYSTEM    = UTC
MEAN_ELEMENT_THEORY = SGP/SGP4

EPOCH          = 2026-03-12T14:00:01.999872
MEAN_MOTION    = 15.35596514
ECCENTRICITY   = .00020006
INCLINATION    = 97.2849
RA_OF_ASC_NODE = 126.1111
ARG_OF_PERICENTER = 68.7633
MEAN_ANOMALY   = 47.0875

EPHEMERIS_TYPE = 0
CLASSIFICATION_TYPE = U
NORAD_CAT_ID   = 67724
ELEMENT_SET_NO = 999
REV_AT_EPOCH   = 578
BSTAR          = -.82028973E-1
MEAN_MOTION_DOT = -.2503731E-1
MEAN_MOTION_DDOT = 0

CCSDS_OMM_VERS = 2.0
CREATION_DATE  = 
ORIGINATOR     = 

OBJECT_NAME    = STARLINK-36754
OBJECT_ID      = 2026-026E
CENTER_NAME    = EARTH
REF_FRAME      = TEME
TIME_SYSTEM    = UTC
MEAN_ELEMENT_THEORY = SGP/SGP4

EPOCH          = 2026-03-12T14:00:01.999872
MEAN_MOTION    = 15.36898629
ECCENTRICITY   = .00016013
INCLINATION    = 97.2853
RA_OF_ASC_NODE = 126.0908
ARG_OF_PERICENTER = 79.4768
MEAN_ANOMALY   = 344.0477

EPHEMERIS_TYPE = 0
CLASSIFICATION_TYPE = U
NORAD_CAT_ID   = 67725
ELEMENT_SET_NO = 999
REV_AT_EPOCH   = 578
BSTAR          = -.96215583E-1
MEAN_MOTION_DOT = -.304839E-1
MEAN_MOTION_DDOT = 0

CCSDS_OMM_VERS = 2.0
CREATION_DATE  = 
ORIGINATOR     = 

OBJECT_NAME    = STARLINK-36755
OBJECT_ID      = 2026-026F
CENTER_NAME    = EARTH
REF_FRAME      = TEME
TIME_SYSTEM    = UTC
MEAN_ELEMENT_THEORY = SGP/SGP4

EPOCH          = 2026-03-12T15:14:13.347744
MEAN_MOTION    = 15.46775516
ECCENTRICITY   = .00023036
INCLINATION    = 97.2864
RA_OF_ASC_NODE = 126.1438
ARG_OF_PERICENTER = 74.5356
MEAN_ANOMALY   = 285.6148

EPHEMERIS_TYPE = 0
CLASSIFICATION_TYPE = U
NORAD_CAT_ID   = 67726
ELEMENT_SET_NO = 999
REV_AT_EPOCH   = 457
BSTAR          = -.77112761E-2
MEAN_MOTION_DOT = -.3683E-2
MEAN_MOTION_DDOT = 0

CCSDS_OMM_VERS = 2.0
CREATION_DATE  = 
ORIGINATOR     = 

OBJECT_NAME    = STARLINK-36741
OBJECT_ID      = 2026-026G
CENTER_NAME    = EARTH
REF_FRAME      = TEME
TIME_SYSTEM    = UTC
MEAN_ELEMENT_THEORY = SGP/SGP4

EPOCH          = 2026-03-12T14:00:01.999872
MEAN_MOTION    = 15.38206103
ECCENTRICITY   = .00011199
INCLINATION    = 97.2852
RA_OF_ASC_NODE = 126.0897
ARG_OF_PERICENTER = 90.0655
MEAN_ANOMALY   = 330.7406

EPHEMERIS_TYPE = 0
CLASSIFICATION_TYPE = U
NORAD_CAT_ID   = 67727
ELEMENT_SET_NO = 999
REV_AT_EPOCH   = 578
BSTAR          = -.53079856E-1
MEAN_MOTION_DOT = -.179847E-1
MEAN_MOTION_DDOT = 0

CCSDS_OMM_VERS = 2.0
CREATION_DATE  = 
ORIGINATOR     = 

OBJECT_NAME    = STARLINK-36757
OBJECT_ID      = 2026-026H
CENTER_NAME    = EARTH
REF_FRAME      = TEME
TIME_SYSTEM    = UTC
MEAN_ELEMENT_THEORY = SGP/SGP4

EPOCH          = 2026-03-12T14:00:01.999872
MEAN_MOTION    = 15.36602037
ECCENTRICITY   = .00020772
INCLINATION    = 97.2845
RA_OF_ASC_NODE = 126.1346
ARG_OF_PERICENTER = 105.1757
MEAN_ANOMALY   = 65.0607

EPHEMERIS_TYPE = 0
CLASSIFICATION_TYPE = U
NORAD_CAT_ID   = 67728
ELEMENT_SET_NO = 999
REV_AT_EPOCH   = 578
BSTAR          = -.65826108E-1
MEAN_MOTION_DOT = -.2117402E-1
MEAN_MOTION_DDOT = 0

CCSDS_OMM_VERS = 2.0
CREATION_DATE  = 
ORIGINATOR     = 

OBJECT_NAME    = STARLINK-36751
OBJECT_ID      = 2026-026J
CENTER_NAME    = EARTH
REF_FRAME      = TEME
TIME_SYSTEM    = UTC
MEAN_ELEMENT_THEORY = SGP/SGP4

EPOCH          = 2026-03-12T14:00:01.999872
MEAN_MOTION    = 15.36646476
ECCENTRICITY   = .00019657
INCLINATION    = 97.2842
RA_OF_ASC_NODE = 126.1479
ARG_OF_PERICENTER = 108.0046
MEAN_ANOMALY   = 91.9476

EPHEMERIS_TYPE = 0
CLASSIFICATION_TYPE = U
NORAD_CAT_ID   = 67729
ELEMENT_SET_NO = 999
REV_AT_EPOCH   = 578
BSTAR          = -.66416498E-1
MEAN_MOTION_DOT = -.2137245E-1
MEAN_MOTION_DDOT = 0

CCSDS_OMM_VERS = 2.0
CREATION_DATE  = 
ORIGINATOR     = 

OBJECT_NAME    = STARLINK-36747
OBJECT_ID      = 2026-026K
CENTER_NAME    = EARTH
REF_FRAME      = TEME
TIME_SYSTEM    = UTC
MEAN_ELEMENT_THEORY = SGP/SGP4

EPOCH          = 2026-03-12T14:00:01.999872
MEAN_MOTION    = 15.37158572
ECCENTRICITY   = .00026099
INCLINATION    = 97.2847
RA_OF_ASC_NODE = 126.1422
ARG_OF_PERICENTER = 74.9410
MEAN_ANOMALY   = 112.3947

EPHEMERIS_TYPE = 0
CLASSIFICATION_TYPE = U
NORAD_CAT_ID   = 67730
ELEMENT_SET_NO = 999
REV_AT_EPOCH   = 578
BSTAR          = -.10408995E+0
MEAN_MOTION_DOT = -.3290146E-1
MEAN_MOTION_DDOT = 0

CCSDS_OMM_VERS = 2.0
CREATION_DATE  = 
ORIGINATOR     = 

OBJECT_NAME    = STARLINK-36315
OBJECT_ID      = 2026-026L
CENTER_NAME    = EARTH
REF_FRAME      = TEME
TIME_SYSTEM    = UTC
MEAN_ELEMENT_THEORY = SGP/SGP4

EPOCH          = 2026-03-12T14:00:01.999872
MEAN_MOTION    = 15.37135611
ECCENTRICITY   = .00018335
INCLINATION    = 97.2848
RA_OF_ASC_NODE = 126.1550
ARG_OF_PERICENTER = 109.0191
MEAN_ANOMALY   = 104.9264

EPHEMERIS_TYPE = 0
CLASSIFICATION_TYPE = U
NORAD_CAT_ID   = 67731
ELEMENT_SET_NO = 999
REV_AT_EPOCH   = 578
BSTAR          = -.68673222E-1
MEAN_MOTION_DOT = -.2234043E-1
MEAN_MOTION_DDOT = 0

CCSDS_OMM_VERS = 2.0
CREATION_DATE  = 
ORIGINATOR     = 

OBJECT_NAME    = STARLINK-36260
OBJECT_ID      = 2026-026M
CENTER_NAME    = EARTH
REF_FRAME      = TEME
TIME_SYSTEM    = UTC
MEAN_ELEMENT_THEORY = SGP/SGP4

EPOCH          = 2026-03-12T14:00:01.999872
MEAN_MOTION    = 15.36895238
ECCENTRICITY   = .00019821
INCLINATION    = 97.2842
RA_OF_ASC_NODE = 126.1632
ARG_OF_PERICENTER = 84.5187
MEAN_ANOMALY   = 147.5706

EPHEMERIS_TYPE = 0
CLASSIFICATION_TYPE = U
NORAD_CAT_ID   = 67732
ELEMENT_SET_NO = 999
REV_AT_EPOCH   = 578
BSTAR          = -.54871109E-1
MEAN_MOTION_DOT = -.1783527E-1
MEAN_MOTION_DDOT = 0

