STARLINK-36772          
1 67721U 26026A   26071.58335648  .00090101  00000+0  26976-2 0  9999
2 67721  97.2845 126.0902 0001048 100.9690 328.0519 15.34173274  5783
STARLINK-36796          
1 67722U 26026B   26071.58335648  .00102079  00000+0  30502-2 0  9998
2 67722  97.2843 126.0756 0001689  58.2804 342.5245 15.34181866  5785
STARLINK-36369          
1 67723U 26026C   26071.58335648 -.01813956  00000+0 -55249-1 0  9999
2 67723  97.2856 126.1049 0001391  75.1581  20.7931 15.37266281  5781
STARLINK-36752          
1 67724U 26026D   26071.58335648 -.02503731  00000+0 -82029-1 0  9994
2 67724  97.2849 126.1111 0002000  68.7633  47.0875 15.35596514  5780
STARLINK-36754          
1 67725U 26026E   26071.58335648 -.03048390  00000+0 -96216-1 0  9994
2 67725  97.2853 126.0908 0001601  79.4768 344.0477 15.36898629  5784
STARLINK-36755          
1 67726U 26026F   26071.63487671 -.00368300  00000+0 -77113-2 0  9994
2 67726  97.2864 126.1438 0002303  74.5356 285.6148 15.46775516  4576
STARLINK-36741          
1 67727U 26026G   26071.58335648 -.01798470  00000+0 -53080-1 0  9997
2 67727  97.2852 126.0897 0001119  90.0655 330.7406 15.38206103  5786
STARLINK-36757          
1 67728U 26026H   26071.58335648 -.02117402  00000+0 -65826-1 0  9990
2 67728  97.2845 126.1346 0002077 105.1757  65.0607 15.36602037  5789
STARLINK-36751          
1 67729U 26026J   26071.58335648 -.02137245  00000+0 -66416-1 0  9994
2 67729  97.2842 126.1479 0001965 108.0046  91.9476 15.36646476  5789
STARLINK-36747          
1 67730U 26026K   26071.58335648 -.03290146  00000+0 -10409+0 0  9996
2 67730  97.2847 126.1422 0002609  74.9410 112.3947 15.37158572  5783
STARLINK-36315          
1 67731U 26026L   26071.58335648 -.02234043  00000+0 -68673-1 0  9998
2 67731  97.2848 126.1550 0001833 109.0191 104.9264 15.37135611  5789
STARLINK-36260          
1 67732U 26026M   26071.58335648 -.01783527  00000+0 -54871-1 0  9999
2 67732  97.2842 126.1632 0001982  84.5187 147.5706 15.36895238  5783
